WORLDVIEW-1 (WV-1)      
1 32060U 07041A   26189.95403137  .00004052  00000+0  16766-3 0  9990
2 32060  97.3891 309.3908 0001007 244.9486 115.1647 15.24512421 46199
WORLDVIEW-2 (WV-2)      
1 35946U 09055A   26189.94419025  .00000047  00000+0  29909-4 0  9999
2 35946  98.4758 263.0973 0005038 145.1089 215.0429 14.37905770878777
WORLDVIEW-3 (WV-3)      
1 40115U 14048A   26189.93095737  .00000564  00000+0  72338-4 0  9998
2 40115  97.8558 264.4632 0000804 164.6333 195.4907 14.85057801645133
